      2.10          N: GNSS NAV DATA                        RINEX VERSION / TYPE
fic2rin                                 07/05/2020 00:17:22 PGM / RUN BY / DATE
                                                            END OF HEADER
 8 20  7  4 10  0  0.0-3.977958112955e-05-1.250555214938e-12 0.000000000000e+00
    5.500000000000e+01 3.984375000000e+01 4.633050127992e-09 9.237819599123e-02
    1.929700374603e-06 5.348066566512e-03-2.682209014893e-07 5.153687343597e+03
    5.544000000000e+05 6.891787052155e-08 1.375258126164e+00-6.146728992462e-08
    9.692805232701e-01 3.872187500000e+02-5.897510221830e-02-8.521426380184e-09
   -4.178745490094e-11 1.000000000000e+00 2.112000000000e+03 0.000000000000e+00
    2.400000000000e+00 0.000000000000e+00 5.122274160385e-09 5.500000000000e+01
    5.472000000000e+05 4.000000000000e+00
 6 20  7  4 10  0  0.0-2.982914447784e-04-5.456968210638e-12 0.000000000000e+00
    1.150000000000e+02-1.585000000000e+02 3.915163082257e-09-1.978893951070e+00
   -8.249655365944e-06 1.809117733501e-03 5.614012479782e-06 5.153575813293e+03
    5.544000000000e+05 2.793967723846e-08 2.437856427968e+00 8.195638656616e-08
    9.802960111380e-01 2.834375000000e+02-1.060669063958e+00-7.951759794142e-09
   -3.521575259173e-10 1.000000000000e+00 2.112000000000e+03 0.000000000000e+00
    2.400000000000e+00 0.000000000000e+00 4.190951585770e-09 1.150000000000e+02
    5.472000000000e+05 4.000000000000e+00
24 20  7  4 10  0  0.0-1.519452780485e-05-4.547473508865e-13 0.000000000000e+00
    2.700000000000e+01-1.715625000000e+01 5.248790061746e-09-1.935831838275e+00
   -1.056119799614e-06 9.754097089171e-03 8.508563041687e-06 5.153642782211e+03
    5.544000000000e+05 8.195638656616e-08-7.649702181830e-01-1.154839992523e-07
    9.361325624102e-01 2.001875000000e+02 6.665545431865e-01-8.107123408517e-09
   -4.625192657839e-10 1.000000000000e+00 2.112000000000e+03 0.000000000000e+00
    2.400000000000e+00 0.000000000000e+00 2.793967723846e-09 2.700000000000e+01
    5.472000000000e+05 4.000000000000e+00
31 20  7  4 10  0  0.0-5.335407331586e-05-2.501110429876e-12 0.000000000000e+00
    9.200000000000e+01-8.750000000000e-01 4.647336437359e-09 3.024165695451e+00
    1.117587089539e-08 9.542412240990e-03 9.538605809212e-06 5.153605932236e+03
    5.544000000000e+05-1.490116119385e-07-6.764940708992e-01 1.862645149231e-09
    9.573462979789e-01 1.951562500000e+02 1.364874319008e-01-7.717464320509e-09
   -5.528801725355e-10 1.000000000000e+00 2.112000000000e+03 0.000000000000e+00
    2.400000000000e+00 0.000000000000e+00-1.303851604462e-08 9.200000000000e+01
    5.472000000000e+05 4.000000000000e+00
16 20  7  4 10  0  0.0-1.784372143447e-04-4.774847184308e-12 0.000000000000e+00
    8.900000000000e+01 1.362500000000e+02 4.069098065696e-09 7.978124964585e-01
    7.402151823044e-06 1.144879846834e-02 8.117407560349e-06 5.153791442871e+03
    5.544000000000e+05-4.284083843231e-08 4.327985235214e-01 1.396983861923e-07
    9.783816438540e-01 2.315000000000e+02 6.345124108802e-01-7.914258232051e-09
   -7.893185925733e-11 1.000000000000e+00 2.112000000000e+03 0.000000000000e+00
    3.400000000000e+00 0.000000000000e+00-1.071020960808e-08 8.900000000000e+01
    5.472000000000e+05 4.000000000000e+00
30 20  7  4 10  0  0.0-2.550417557359e-04-7.844391802792e-12 0.000000000000e+00
    4.900000000000e+01 1.406250000000e+00 5.116284542359e-09-2.976242045479e+00
    9.126961231232e-08 4.733741749078e-03 9.842216968536e-06 5.153624456406e+03
    5.544000000000e+05-5.215406417847e-08-6.700929119223e-01-8.940696716309e-08
    9.382354515583e-01 1.819375000000e+02-2.832691877695e+00-8.017833974968e-09
   -6.203829842986e-10 1.000000000000e+00 2.112000000000e+03 0.000000000000e+00
    2.400000000000e+00 0.000000000000e+00 3.725290298462e-09 4.900000000000e+01
    5.472000000000e+05 4.000000000000e+00
27 20  7  4 10  0  0.0-3.371438942850e-04-9.663381206337e-12 0.000000000000e+00
    6.200000000000e+01 3.268750000000e+01 4.511616498365e-09-6.224474021756e-02
    1.747161149979e-06 8.309588185512e-03-7.823109626770e-08 5.153664667130e+03
    5.544000000000e+05 7.450580596924e-08 1.389859265743e+00 5.774199962616e-08
    9.777121730422e-01 3.852187500000e+02 5.786624732604e-01-8.478567452081e-09
   -5.893102614235e-11 1.000000000000e+00 2.112000000000e+03 0.000000000000e+00
    2.400000000000e+00 0.000000000000e+00 1.862645149231e-09 6.200000000000e+01
    5.472000000000e+05 4.000000000000e+00
22 20  7  4 10  0  0.0-7.742638699710e-04 2.387423592154e-12 0.000000000000e+00
    9.200000000000e+01-4.506250000000e+01 4.733768609035e-09-9.606899552442e-01
   -2.341344952583e-06 6.979181431234e-03 1.184083521366e-05 5.153801080704e+03
    5.544000000000e+05-1.508742570877e-07-2.885039251499e+00 1.154839992523e-07
    9.315106936394e-01 1.373125000000e+02-1.125614706439e+00-8.057478483464e-09
    6.664563320099e-10 1.000000000000e+00 2.112000000000e+03 0.000000000000e+00
    2.400000000000e+00 0.000000000000e+00-1.816079020500e-08 9.200000000000e+01
    5.472000000000e+05 4.000000000000e+00
14 20  7  4 10  0  0.0-1.188833266497e-06 2.842170943040e-12 0.000000000000e+00
    6.700000000000e+01 5.500000000000e+00 5.076640033863e-09-2.517760617007e-01
    2.775341272354e-07 1.153455767781e-02 5.273148417473e-06 5.153651380539e+03
    5.544000000000e+05-1.043081283569e-07-1.670203462335e+00 1.154839992523e-07
    9.599691520998e-01 2.825000000000e+02-1.910682986199e+00-8.368205712214e-09
    2.171519023912e-10 1.000000000000e+00 2.112000000000e+03 0.000000000000e+00
    2.400000000000e+00 0.000000000000e+00-9.778887033463e-09 6.700000000000e+01
    5.472000000000e+05 4.000000000000e+00
13 20  7  4 10  0  0.0 2.378830686212e-05 3.296918293927e-12 0.000000000000e+00
    4.300000000000e+01 1.375000000000e+00 4.863059708814e-09-7.307444655944e-01
    1.955777406693e-07 4.200636292808e-03 5.086883902550e-06 5.153647930145e+03
    5.544000000000e+05 5.587935447693e-09-1.622929678610e+00 5.029141902924e-08
    9.673547876498e-01 2.868125000000e+02 1.060105081243e+00-8.096408676491e-09
    1.732215010851e-10 1.000000000000e+00 2.112000000000e+03 0.000000000000e+00
    2.400000000000e+00 0.000000000000e+00-1.117587089539e-08 4.300000000000e+01
    5.472000000000e+05 4.000000000000e+00
10 20  7  4 10  0  0.0-3.899177536368e-04-1.080024958355e-11 0.000000000000e+00
    1.050000000000e+02-3.884375000000e+01 4.053383125391e-09 2.025409590668e+00
   -1.961365342140e-06 5.686960765161e-03 1.110136508942e-05 5.153671392441e+03
    5.544000000000e+05-1.210719347000e-07-2.800297126541e+00-1.490116119385e-08
    9.663555004940e-01 1.672187500000e+02-2.638969060385e+00-7.663890660380e-09
    5.303792352812e-10 1.000000000000e+00 2.112000000000e+03 0.000000000000e+00
    2.400000000000e+00 0.000000000000e+00 2.328306436539e-09 1.050000000000e+02
    5.472000000000e+05 4.000000000000e+00
11 20  7  4 10  0  0.0-2.307160757482e-04 1.057287590811e-11 0.000000000000e+00
    6.700000000000e+01-1.080625000000e+02 5.498443317949e-09-2.701735175829e+00
   -5.308538675308e-06 1.605732715689e-02-5.587935447693e-08 5.153722055435e+03
    5.544000000000e+05 5.401670932770e-08 1.968951218104e+00 1.825392246246e-07
    9.128364141578e-01 3.545937500000e+02 2.001169988991e+00-8.604286974518e-09
   -3.146559638267e-10 1.000000000000e+00 2.112000000000e+03 0.000000000000e+00
    2.400000000000e+00 0.000000000000e+00-1.257285475731e-08 6.700000000000e+01
    5.472000000000e+05 4.000000000000e+00
21 20  7  4 10  0  0.0 1.954101026058e-05 4.661160346586e-12 0.000000000000e+00
    8.700000000000e+01-1.381250000000e+02 4.377682348041e-09 1.686697658871e+00
   -7.675960659981e-06 2.381370693911e-02 3.946945071220e-06 5.155120914459e+03
    5.544000000000e+05 4.712492227554e-07 2.371033536824e+00-2.700835466385e-07
    9.536424161545e-01 2.958750000000e+02-1.316634389073e+00-7.963545999370e-09
   -3.578720496645e-10 1.000000000000e+00 2.112000000000e+03 0.000000000000e+00
    2.400000000000e+00 0.000000000000e+00-1.024454832077e-08 8.700000000000e+01
    5.472000000000e+05 4.000000000000e+00
12 20  7  4 10  0  0.0 9.812088683248e-05-4.888534022029e-12 0.000000000000e+00
    7.200000000000e+01 1.379687500000e+02 3.922663394676e-09 2.656918627805e+00
    7.005408406258e-06 7.994970772415e-03 8.819624781609e-06 5.153672180176e+03
    5.544000000000e+05-9.313225746155e-09 4.139508297308e-01-1.452863216400e-07
    9.781749598620e-01 2.126562500000e+02 1.164313079433e+00-7.581387223780e-09
    1.035757429169e-11 1.000000000000e+00 2.112000000000e+03 0.000000000000e+00
    2.400000000000e+00 0.000000000000e+00-1.210719347000e-08 7.200000000000e+01
    5.472000000000e+05 4.000000000000e+00
25 20  7  4 10  0  0.0 1.960899680853e-05 4.092726157978e-12 0.000000000000e+00
    8.500000000000e+01 1.308125000000e+02 4.186602960246e-09 2.454917113197e+00
    6.616115570068e-06 9.102399460971e-03 9.654089808464e-06 5.153776208878e+03
    5.544000000000e+05-4.470348358154e-08 3.445764543867e-01-1.993030309677e-07
    9.655219341612e-01 1.925000000000e+02 9.392538356466e-01-7.673176761469e-09
    1.321483616526e-11 1.000000000000e+00 2.112000000000e+03 0.000000000000e+00
    2.400000000000e+00 0.000000000000e+00 5.587935447693e-09 8.500000000000e+01
    5.472000000000e+05 4.000000000000e+00
17 20  7  4 10  0  0.0 2.907123416662e-04 5.911715561524e-12 0.000000000000e+00
    5.700000000000e+01 3.103125000000e+01 4.401969073967e-09-1.245547938757e-01
    1.687556505203e-06 1.323708961718e-02-1.657754182816e-07 5.153719768524e+03
    5.544000000000e+05-2.048909664154e-07 1.448527250254e+00 7.078051567078e-08
    9.835924541852e-01 3.967500000000e+02-1.640428981789e+00-8.602501185847e-09
   -2.071514858337e-11 1.000000000000e+00 2.112000000000e+03 0.000000000000e+00
    2.400000000000e+00 0.000000000000e+00-1.071020960808e-08 5.700000000000e+01
    5.472000000000e+05 4.000000000000e+00
